JY1SAT (JO-97)          
1 43803U 18099AX  26068.68634132  .00017774  00000+0  60804-3 0  9996
2 43803  97.4249 131.3625 0004723 256.6795 103.3919 15.30302628398390
STARLINK-30814          
1 58165U 23166R   26068.69220594 -.00002322  00000+0 -66281-4 0  9999
2 58165  53.1605 219.3221 0000795  79.5515 280.5576 15.30205128133186
